[{"OBJECT_NAME":"STARLINK-31659","OBJECT_ID":"2024-050A","EPOCH":"2026-03-09T12:32:24.838080","MEAN_MOTION":15.30203311,"ECCENTRICITY":0.00014462,"INCLINATION":53.1607,"RA_OF_ASC_NODE":179.5954,"ARG_OF_PERICENTER":108.186,"MEAN_ANOMALY":251.9299,"EPHEMERIS_TYPE":0,"CLASSIFICATION_TYPE":"U","NORAD_CAT_ID":59254,"ELEMENT_SET_NO":999,"REV_AT_EPOCH":11170,"BSTAR":0.00013770167,"MEAN_MOTION_DOT":3.722e-5,"MEAN_MOTION_DDOT":0},{"OBJECT_NAME":"HAWK-11A","OBJECT_ID":"2024-247F","EPOCH":"2026-03-09T12:17:43.893312","MEAN_MOTION":15.28849427,"ECCENTRICITY":0.00054663,"INCLINATION":44.9941,"RA_OF_ASC_NODE":114.3328,"ARG_OF_PERICENTER":327.3713,"MEAN_ANOMALY":32.6832,"EPHEMERIS_TYPE":0,"CLASSIFICATION_TYPE":"U","NORAD_CAT_ID":62382,"ELEMENT_SET_NO":999,"REV_AT_EPOCH":6774,"BSTAR":0.00034106017,"MEAN_MOTION_DOT":9.457e-5,"MEAN_MOTION_DDOT":0}]
